[{"OBJECT_NAME":"UHETSAT","OBJECT_ID":"2023-185E","EPOCH":"2026-03-09T22:39:26.455680","MEAN_MOTION":15.29797662,"ECCENTRICITY":0.00118435,"INCLINATION":97.3584,"RA_OF_ASC_NODE":137.3576,"ARG_OF_PERICENTER":307.7346,"MEAN_ANOMALY":52.2821,"EPHEMERIS_TYPE":0,"CLASSIFICATION_TYPE":"U","NORAD_CAT_ID":58466,"ELEMENT_SET_NO":999,"REV_AT_EPOCH":12611,"BSTAR":0.00030513019,"MEAN_MOTION_DOT":8.749e-5,"MEAN_MOTION_DDOT":0},{"OBJECT_NAME":"STARLINK-34486","OBJECT_ID":"2025-137D","EPOCH":"2026-03-09T23:30:47.140992","MEAN_MOTION":15.30200925,"ECCENTRICITY":0.00014257,"INCLINATION":53.1606,"RA_OF_ASC_NODE":334.2903,"ARG_OF_PERICENTER":124.0727,"MEAN_ANOMALY":236.0409,"EPHEMERIS_TYPE":0,"CLASSIFICATION_TYPE":"U","NORAD_CAT_ID":64597,"ELEMENT_SET_NO":999,"REV_AT_EPOCH":4077,"BSTAR":0.00058700101,"MEAN_MOTION_DOT":0.00017067,"MEAN_MOTION_DDOT":0}]
